{
    "links": {
        "self": "http://www.neowsapp.com/rest/v1/neo/3884018?api_key=iIulBulltgU6a56xZRHN4H3l9WmuAYTsLGpBGhQ2"
    },
    "id": "3884018",
    "neo_reference_id": "3884018",
    "name": "(2019 UL9)",
    "designation": "2019 UL9",
    "nasa_jpl_url": "http://ssd.jpl.nasa.gov/sbdb.cgi?sstr=3884018",
    "absolute_magnitude_h": 25.5,
    "estimated_diameter": {
        "kilometers": {
            "estimated_diameter_min": 0.0211132445,
            "estimated_diameter_max": 0.0472106499
        },
        "meters": {
            "estimated_diameter_min": 21.113244479,
            "estimated_diameter_max": 47.2106498806
        },
        "miles": {
            "estimated_diameter_min": 0.0131191578,
            "estimated_diameter_max": 0.0293353287
        },
        "feet": {
            "estimated_diameter_min": 69.2691770164,
            "estimated_diameter_max": 154.8905885541
        }
    },
    "is_potentially_hazardous_asteroid": false,
    "close_approach_data": [
        {
            "close_approach_date": "2000-10-31",
            "close_approach_date_full": "2000-Oct-31 05:51",
            "epoch_date_close_approach": 972971460000,
            "relative_velocity": {
                "kilometers_per_second": "4.3443541397",
                "kilometers_per_hour": "15639.6749028753",
                "miles_per_hour": "9717.8857750671"
            },
            "miss_distance": {
                "astronomical": "0.153832619",
                "lunar": "59.840888791",
                "kilometers": "23013032.13892153",
                "miles": "14299635.088235914"
            },
            "orbiting_body": "Earth"
        },
        {
            "close_approach_date": "2011-02-17",
            "close_approach_date_full": "2011-Feb-17 01:17",
            "epoch_date_close_approach": 1297905420000,
            "relative_velocity": {
                "kilometers_per_second": "6.9969389288",
                "kilometers_per_hour": "25188.9801436125",
                "miles_per_hour": "15651.4526897908"
            },
            "miss_distance": {
                "astronomical": "0.0881721909",
                "lunar": "34.2989822601",
                "kilometers": "13190371.951873383",
                "miles": "8196117.0718953654"
            },
            "orbiting_body": "Mars"
        },
        {
            "close_approach_date": "2019-11-01",
            "close_approach_date_full": "2019-Nov-01 00:59",
            "epoch_date_close_approach": 1572569940000,
            "relative_velocity": {
                "kilometers_per_second": "3.9123128199",
                "kilometers_per_hour": "14084.3261516437",
                "miles_per_hour": "8751.4525468366"
            },
            "miss_distance": {
                "astronomical": "0.1224238086",
                "lunar": "47.6228615454",
                "kilometers": "18314341.003847682",
                "miles": "11380003.8020027316"
            },
            "orbiting_body": "Earth"
        },
        {
            "close_approach_date": "2150-11-02",
            "close_approach_date_full": "2150-Nov-02 23:33",
            "epoch_date_close_approach": 5706718380000,
            "relative_velocity": {
                "kilometers_per_second": "3.9102857166",
                "kilometers_per_hour": "14077.0285798702",
                "miles_per_hour": "8746.918119531"
            },
            "miss_distance": {
                "astronomical": "0.1210983401",
                "lunar": "47.1072542989",
                "kilometers": "18116053.739495587",
                "miles": "11256793.8092576206"
            },
            "orbiting_body": "Earth"
        }
    ],
    "orbital_data": {
        "orbit_id": "3",
        "orbit_determination_date": "2019-12-03 19:59:05",
        "first_observation_date": "2019-10-25",
        "last_observation_date": "2019-11-24",
        "data_arc_in_days": 30,
        "observations_used": 17,
        "orbit_uncertainty": "7",
        "minimum_orbit_intersection": ".12093",
        "jupiter_tisserand_invariant": "4.221",
        "epoch_osculation": "2459000.5",
        "eccentricity": ".3239930696360345",
        "semi_major_axis": "1.645952635203629",
        "inclination": "5.531801126382511",
        "ascending_node_longitude": "41.92946337516109",
        "orbital_period": "771.3019462370579",
        "perihelion_distance": "1.112675388448485",
        "perihelion_argument": "358.1529834982791",
        "aphelion_distance": "2.179229881958773",
        "perihelion_time": "2458789.332970436944",
        "mean_anomaly": "98.56079193573774",
        "mean_motion": ".4667432796667089",
        "equinox": "J2000",
        "orbit_class": {
            "orbit_class_type": "AMO",
            "orbit_class_description": "Near-Earth asteroid orbits similar to that of 1221 Amor",
            "orbit_class_range": "1.017 AU < q (perihelion) < 1.3 AU"
        }
    },
    "is_sentry_object": false
}